ONEWEB-0201             
1 48241U 21031AH  23218.04391665 -.00000094  00000+0 -28861-3 0  9998
2 48241  87.9052 137.9554 0002136  78.3110 281.8259 13.14504511110943
ONEWEB-0207             
1 48242U 21031AJ  23218.17079361  .00000113  00000+0  26938-3 0  9992
2 48242  87.9056 137.8976 0002127  73.1289 287.0074 13.14504292110876
ONEWEB-0208             
1 48243U 21031AK  23217.76798647  .00000185  00000+0  46396-3 0  9991
2 48243  87.9052 137.9957 0002251  82.0021 278.1364 13.14500868110838
ONEWEB-0200             
1 48244U 21031AL  23218.18875092 -.00000138  00000+0 -40800-3 0  9993
2 48244  87.9050 137.9005 0002290  83.3348 276.8042 13.14504870110824
ONEWEB-0217             
1 48245U 21031AM  23218.05342659  .00000108  00000+0  25669-3 0  9999
2 48245  87.9052 137.9104 0002319  86.6520 273.4875 13.14504850110754
ONEWEB-0211             
1 48767U 21045A   23218.15543300  .00000162  00000+0  39565-3 0  9990
2 48767  87.9002 107.4832 0001920  83.3315 276.8034 13.15546385108011
ONEWEB-0223             
1 48768U 21045B   23218.17655161 -.00000352  00000+0 -97012-3 0  9996
2 48768  87.8999 107.4848 0001849  93.3161 266.8181 13.15548460108011
ONEWEB-0230             
1 48769U 21045C   23217.76882433  .00000176  00000+0  43213-3 0  9991
2 48769  87.9020 107.6242 0001903  79.6167 280.5178 13.15552501108191
ONEWEB-0237             
1 48770U 21045D   23217.75825003  .00000069  00000+0  14792-3 0  9993
2 48770  87.9005 107.5487 0001514  96.4979 263.6323 13.15547645107930
ONEWEB-0235             
1 48771U 21045E   23217.42653945 -.00000435  00000+0 -11886-2 0  9991
2 48771  87.9003 107.6474 0001340 107.1365 252.9912 13.15548910107876
ONEWEB-0242             
1 48772U 21045F   23217.11599155 -.00000032  00000+0 -11954-3 0  9990
2 48772  87.9001 107.7006 0001620  82.3990 277.7324 13.15547611107886
ONEWEB-0241             
1 48773U 21045G   23217.71175984 -.00000039  00000+0 -13859-3 0  9990
2 48773  87.9014 107.5985 0002075  95.7974 264.3393 13.15545709107873
ONEWEB-0243             
1 48774U 21045H   23217.74344362 -.00000406  00000+0 -11121-2 0  9999
2 48774  87.8999 107.5531 0001389  90.6591 269.4698 13.15547822107904
ONEWEB-0222             
1 48775U 21045J   23217.42865303 -.00000566  00000+0 -15373-2 0  9998
2 48775  87.9000 107.6525 0001848  89.5192 270.6150 13.15548618107896
ONEWEB-0244             
1 48776U 21045K   23217.75403429  .00000126  00000+0  30058-3 0  9990
2 48776  87.9000 107.5719 0001523  79.9147 280.2155 13.15544287108503
ONEWEB-0247             
1 48777U 21045L   23217.74978006  .00000099  00000+0  22962-3 0  9992
2 48777  87.9014 107.5796 0001509 100.7621 259.3679 13.15551030107958
ONEWEB-0245             
1 48778U 21045M   23218.12586817  .00000136  00000+0  32715-3 0  9990
2 48778  87.8999 107.5242 0002068  87.5447 272.5920 13.15551264107972
ONEWEB-0229             
1 48779U 21045N   23217.13077772  .00000094  00000+0  21596-3 0  9994
2 48779  87.9002 107.7116 0001585  79.6429 280.4880 13.15547822107873
ONEWEB-0228             
1 48780U 21045P   23217.22053936  .00000208  00000+0  51886-3 0  9994
2 48780  87.9000 107.6752 0001687  81.1002 279.0320 13.15552253107806
ONEWEB-0232             
1 48781U 21045Q   23218.12795381 -.00001016  00000+0 -27330-2 0  9998
2 48781  87.9027 107.5820 0002123  79.9251 280.2119 13.15546286108235
ONEWEB-0231             
1 48782U 21045R   23217.72654427 -.00000226  00000+0 -63330-3 0  9992
2 48782  87.9012 107.5933 0001631  87.4835 272.6482 13.15549833107890
ONEWEB-0234             
1 48783U 21045S   23217.21951169  .00000084  00000+0  18820-3 0  9994
2 48783  87.9001 107.6821 0002178  82.0555 278.0822 13.15544991107958
ONEWEB-0238             
1 48784U 21045T   23217.76352467  .00000192  00000+0  47672-3 0  9998
2 48784  87.9003 107.5838 0002061  81.2248 278.9115 13.15545597107923
ONEWEB-0240             
1 48785U 21045U   23217.78570449  .00000078  00000+0  17373-3 0  9991
2 48785  87.9004 107.5538 0001981  93.5666 266.5691 13.15546003107949
ONEWEB-0246             
1 48786U 21045V   23217.78150494  .00000161  00000+0  39430-3 0  9997
2 48786  87.9004 107.5552 0001561  95.5505 264.5804 13.15549720107813
ONEWEB-0210             
1 48787U 21045W   23217.75612671  .00000176  00000+0  43326-3 0  9990
2 48787  87.9001 107.5697 0001012  85.4797 274.6449 13.15551575107866
ONEWEB-0214             
1 48788U 21045X   23217.76669656  .00000141  00000+0  34036-3 0  9997
2 48788  87.9003 107.5563 0000983  78.1202 282.0039 13.15546097107824
ONEWEB-0221             
1 48789U 21045Y   23217.77304585  .00000125  00000+0  29816-3 0  9998
2 48789  87.9006 107.5644 0001799  87.1707 272.9630 13.15547116107934
ONEWEB-0213             
1 48790U 21045Z   23217.76036038  .00000129  00000+0  30800-3 0  9993
2 48790  87.9004 107.5852 0001572  93.4578 266.6732 13.15545795107989
ONEWEB-0212             
1 48791U 21045AA  23218.12162035  .00000042  00000+0  76860-4 0  9993
2 48791  87.9003 107.4940 0002039  75.5666 284.5690 13.15545514108032
ONEWEB-0227             
1 48792U 21045AB  23217.73501417 -.00000021  00000+0 -89440-4 0  9998
2 48792  87.9004 107.5850 0001937  86.3463 273.7889 13.15548115107923
ONEWEB-0226             
1 48793U 21045AC  23217.42442654 -.00000498  00000+0 -13581-2 0  9991
2 48793  87.9003 107.6555 0001225  89.3609 270.7662 13.15548764107848
ONEWEB-0224             
1 48794U 21045AD  23218.15122721  .00003092  00000+0  81783-2 0  9993
2 48794  87.9013 107.5091 0002492  81.7552 278.3861 13.15539667107863
ONEWEB-0233             
1 48795U 21045AE  23217.76445035  .00000238  00000+0  59922-3 0  9996
2 48795  87.9028 107.6737 0001957  84.3738 275.7616 13.15547715107826
ONEWEB-0190             
1 48796U 21045AF  23217.76246905  .00000120  00000+0  28367-3 0  9991
2 48796  87.9000 107.5866 0001438 123.0301 237.0967 13.15547694107905
ONEWEB-0236             
1 48797U 21045AG  23217.70331591  .00000053  00000+0  10761-3 0  9996
2 48797  87.9002 107.5700 0001911  84.3379 275.7969 13.15546003107785
ONEWEB-0248             
1 48798U 21045AH  23218.17233930  .00000027  00000+0  36334-4 0  9993
2 48798  87.9003 107.4914 0002153 104.1025 256.0345 13.15549772108003
ONEWEB-0225             
1 48799U 21045AJ  23217.12865313  .00000084  00000+0  18870-3 0  9991
2 48799  87.8996 107.7128 0001602  99.9931 260.1381 13.15550480107899
ONEWEB-0215             
1 48800U 21045AK  23218.16388960  .00000124  00000+0  29622-3 0  9999
2 48800  87.9002 107.4818 0001899 111.5267 248.6066 13.15547551107880
ONEWEB-0216             
1 48801U 21045AL  23217.10965420 -.00000079  00000+0 -24490-3 0  9994
2 48801  87.9003 107.7297 0001498  73.6921 286.4374 13.15550140107752
ONEWEB-0239             
1 48802U 21045AM  23217.11387881 -.00000058  00000+0 -18762-3 0  9997
2 48802  87.9004 107.6793 0001986 108.3083 251.8264 13.15548095107818
ONEWEB-0249             
1 48967U 21060A   23217.64997390 -.00000025  00000+0 -98362-4 0  9995
2 48967  87.8982  77.0857 0001813  80.3294 279.8041 13.16596413103195
ONEWEB-0250             
1 48968U 21060B   23217.65418780 -.00000005  00000+0 -47938-4 0  9999
2 48968  87.8983  77.0946 0001856  93.8501 266.2842 13.16592535103171
ONEWEB-0252             
1 48970U 21060D   23218.13759974 -.00000166  00000+0 -46847-3 0  9994
2 48970  87.8993  77.0028 0001574  81.4706 278.6604 13.16594188103307
ONEWEB-0253             
1 48971U 21060E   23218.12705579  .00000163  00000+0  39309-3 0  9996
2 48971  87.9095  77.0687 0001515  97.8579 262.2724 13.16594304103220
ONEWEB-0254             
1 48972U 21060F   23218.13549767  .00000133  00000+0  31504-3 0  9999
2 48972  87.8993  76.9923 0001670  95.5192 264.6129 13.16592666103220
ONEWEB-0255             
1 48973U 21060G   23218.17350408  .00000024  00000+0  28956-4 0  9993
2 48973  87.8982  77.0240 0001803  87.7496 272.3841 13.16594801103311
ONEWEB-0256             
1 48974U 21060H   23218.12283776  .00000134  00000+0  31576-3 0  9995
2 48974  87.8998  77.0344 0001593  75.4451 284.6857 13.16595674103272
ONEWEB-0257             
1 48975U 21060J   23217.70063452 -.00000029  00000+0 -10878-3 0  9993
2 48975  87.8978  77.0955 0001531  85.7034 274.4272 13.16596487103172
ONEWEB-0258             
1 48976U 21060K   23217.70273691  .00000001  00000+0 -31528-4 0  9997
2 48976  87.8985  77.1216 0001857  88.3345 271.7998 13.16591765103176
ONEWEB-0259             
1 48977U 21060L   23217.69640888  .00000018  00000+0  14390-4 0  9997
2 48977  87.8988  77.1068 0001973  93.3800 266.7557 13.16596036103212
ONEWEB-0260             
1 48978U 21060M   23217.69006275  .00000049  00000+0  94005-4 0  9999
2 48978  87.9090  77.1238 0001050  66.4096 293.7145 13.16596664103187
ONEWEB-0261             
1 48979U 21060N   23217.12431620  .00000069  00000+0  14608-3 0  9996
2 48979  87.8976  77.1947 0001466  93.0318 267.0981 13.16592725103187
ONEWEB-0262             
1 48980U 21060P   23217.10531969  .00000004  00000+0 -23919-4 0  9999
2 48980  87.8994  77.2095 0001946  99.4725 260.6625 13.16593629103143
ONEWEB-0263             
1 48981U 21060Q   23217.66896525  .00000001  00000+0 -30499-4 0  9991
2 48981  87.8999  77.1119 0001700 104.8959 255.2361 13.16598809103189
ONEWEB-0264             
1 48982U 21060R   23217.62990559 -.00000005  00000+0 -45664-4 0  9995
2 48982  87.9008  77.1167 0001787  86.0319 274.1016 13.16595832103170
ONEWEB-0266             
1 48984U 21060T   23217.65207237 -.00000028  00000+0 -10673-3 0  9990
2 48984  87.8993  77.1058 0001944  84.4155 275.7198 13.16595484103179
ONEWEB-0267             
1 48985U 21060U   23218.11862699  .00000103  00000+0  23455-3 0  9996
2 48985  87.8992  77.0127 0001360  95.4092 264.7194 13.16593278103239
ONEWEB-0268             
1 48986U 21060V   23218.16295426  .00000051  00000+0  10066-3 0  9996
2 48986  87.8991  77.0067 0001777  78.4634 281.6697 13.16590728103500
